DMSP 5D-3 F16 (USA 172) 
1 28054U 03048A   26170.84941794 -.00000042  00000+0  17298-5 0  9994
2 28054  98.9889 194.6954 0007856 133.4044 271.5711 14.14483115169861
METEOSAT-9 (MSG-2)      
1 28912U 05049B   26170.75941399  .00000115  00000+0  00000+0 0  9998
2 28912   9.3680  54.1448 0001763 346.3044 186.5669  1.00273543  7022
DMSP 5D-3 F17 (USA 191) 
1 29522U 06050A   26170.78601425 -.00000009  00000+0  17477-4 0  9999
2 29522  98.7378 177.3029 0011079  52.6831 307.5351 14.14993179 12797
FENGYUN 3A              
1 32958U 08026A   26170.72570560  .00000060  00000+0  49120-4 0  9996
2 32958  98.6883 111.5114 0009687 117.0201 243.1965 14.19571589935767
GOES 14                 
1 35491U 09033A   26170.84012469 -.00000307  00000+0  00000+0 0  9996
2 35491   1.6979  83.0125 0001891  13.0047 254.7779  1.00110180  6615
DMSP 5D-3 F18 (USA 210) 
1 35951U 09057A   26170.82828110  .00000229  00000+0  14171-3 0  9999
2 35951  98.9038 151.5916 0009950 241.1333 118.8842 14.14898255859966
EWS-G2 (GOES 15)        
1 36411U 10008A   26170.81078443  .00000014  00000+0  00000+0 0  9998
2 36411   1.2858  82.8080 0004906  42.1464 138.6248  1.00266643 59663
COMS 1                  
1 36744U 10032A   26170.82989125  .00000085  00000+0  00000+0 0  9991
2 36744   4.8128  75.3251 0011627  12.2751 182.1056  0.99163136 51116
FENGYUN 3B              
1 37214U 10059A   26170.85838267  .00000020  00000+0  33874-4 0  9995
2 37214  98.9611 216.8846 0022078 176.4669 289.1158 14.14841265807809
SUOMI NPP               
1 37849U 11061A   26170.87804144  .00000060  00000+0  49484-4 0  9990
2 37849  98.7953 111.7357 0001382   0.4727 359.6450 14.19517888758827
METEOSAT-10 (MSG-3)     
1 38552U 12035B   26170.03753987 -.00000014  00000+0  00000+0 0  9996
2 38552   4.6769  61.0157 0001437   1.0805 218.9888  1.00266258 50870
METOP-B                 
1 38771U 12049A   26170.86449301  .00000063  00000+0  48775-4 0  9996
2 38771  98.6503 222.3101 0002031  12.3178 347.8049 14.21440772713646
INSAT-3D                
1 39216U 13038B   26170.77599228 -.00000345  00000+0  00000+0 0  9992
2 39216   1.9338  82.5103 0000612 325.7665 268.5563  1.00268166 47106
FENGYUN 3C              
1 39260U 13052A   26170.80008013  .00000056  00000+0  49450-4 0  9993
2 39260  98.4987 144.5549 0015094  20.4550 339.7226 14.15755598658937
METEOR-M 2              
1 40069U 14037A   26170.89081377 -.00000193  00000+0 -68960-4 0  9990
2 40069  98.5120 146.5336 0006646  37.6683 322.4959 14.21461409619708
HIMAWARI-8              
1 40267U 14060A   26170.76933198 -.00000281  00000+0  00000+0 0  9992
2 40267   0.0163  46.0851 0001130  46.9314 232.5959  1.00270956 42783
FENGYUN 2G              
1 40367U 14090A   26170.77009894 -.00000310  00000+0  00000+0 0  9997
2 40367   5.6465  72.7874 0003826 158.5034  53.6178  1.00270908 42023
METEOSAT-11 (MSG-4)     
1 40732U 15034A   26170.75227588  .00000056  00000+0  00000+0 0  9998
2 40732   3.2073  71.0913 0002414 346.2837 131.0177  1.00263852  7248
ELEKTRO-L 2             
1 41105U 15074A   26169.03651196 -.00000126  00000+0  00000+0 0  9991
2 41105   6.6975  70.5132 0000902 256.1704 298.2263  1.00270556 38515
SENTINEL-3A             
1 41335U 16011A   26170.81136042  .00000027  00000+0  29289-4 0  9998
2 41335  98.6249 238.1574 0001415  99.4675 260.6666 14.26733276538433
INSAT-3DR               
1 41752U 16054A   26170.69371262 -.00000082  00000+0  00000+0 0  9996
2 41752   0.1131  86.2198 0010472 187.5783 317.8182  1.00271210 35848
HIMAWARI-9              
1 41836U 16064A   26170.27920780 -.00000281  00000+0  00000+0 0  9990
2 41836   0.0172 307.7649 0001007 181.4804  19.5297  1.00270188 35237
GOES 16                 
1 41866U 16071A   26170.65839204 -.00000097  00000+0  00000+0 0  9998
2 41866   0.3487  85.5113 0000285 332.9109 341.7820  1.00271313 35128
FENGYUN 4A              
1 41882U 16077A   26170.34713694 -.00000364  00000+0  00000+0 0  9999
2 41882   2.3289  80.2523 0008694 153.5825 282.4367  1.00267406 34954
CYGFM05                 
1 41884U 16078A   26170.55220100  .00018941  00000+0  25596-3 0  9990
2 41884  34.9561 244.9283 0007250 174.6266 185.4537 15.56759138529125
CYGFM04                 
1 41885U 16078B   26170.51544080  .00023510  00000+0  26370-3 0  9992
2 41885  34.9311 212.7437 0006974 215.9768 144.0489 15.61620009529364
CYGFM02                 
1 41886U 16078C   26170.51165565  .00027984  00000+0  27850-3 0  9993
2 41886  34.9391 207.2365 0007992 217.1702 142.8472 15.64626531529531
CYGFM01                 
1 41887U 16078D   26170.53988211  .00019995  00000+0  26333-3 0  9995
2 41887  34.9390 246.0480 0006988 168.3107 191.7780 15.57439583529075
CYGFM08                 
1 41888U 16078E   26170.55930979  .00022522  00000+0  26756-3 0  9995
2 41888  34.9419 225.4354 0008618 199.4755 160.5642 15.60122432529342
CYGFM07                 
1 41890U 16078G   26170.51830466  .00021971  00000+0  26022-3 0  9997
2 41890  34.9433 214.0474 0007394 215.1279 144.8959 15.60217463529362
CYGFM03                 
1 41891U 16078H   26170.48932189  .00021626  00000+0  25627-3 0  9996
2 41891  34.9389 216.1772 0006794 203.2035 156.8384 15.60210432529339
